STARLINK-31562          
1 59340U 24057W   26068.41273677 -.00001135  00000+0 -31738-4 0  9995
2 59340  43.0007 203.6196 0000882 223.3898 136.6884 15.27579476109624
NUSAT-50 (NANCY ROMAN)  
1 60493U 24149AB  26068.80227738  .00012094  00000+0  42252-3 0  9994
2 60493  97.3817 150.7693 0002523 238.0469 122.0527 15.29713355 86930
